{
  "type": "FeatureCollection",
  "name": "NYCIF Citywide Activity Radar Sample",
  "metadata": {
    "generated_by": "NYCIF Web Platform",
    "generated_at": "2026-06-17T18:05:00+00:00",
    "source_id": "sample-citywide-radar",
    "source_name": "NYCIF Sample Citywide Radar",
    "public_use": true,
    "radar_model": "show_all_eligible_public_activity",
    "feature_count": 2,
    "skipped": {
      "missing_coordinates": 1,
      "blocked_review_status:rejected": 1
    }
  },
  "features": [
    {
      "type": "Feature",
      "geometry": {
        "type": "Point",
        "coordinates": [-73.9855, 40.758]
      },
      "properties": {
        "event_id": "sample-film-permit-001",
        "title": "Sample Film Permit Activity",
        "description": "Sample public filming activity for prototype testing.",
        "category": "Photo Opportunity",
        "source_layer": "film_media_permits",
        "start_date": "2026-06-20",
        "start_time": "09:00",
        "end_date": "2026-06-20",
        "end_time": "15:00",
        "borough": "Manhattan",
        "neighborhood": "Midtown",
        "address": "Sample Midtown block",
        "latitude": 40.758,
        "longitude": -73.9855,
        "source_name": "NYCIF Sample Data",
        "source_url": "https://nycinfocus.com/",
        "official_source_url": "https://nycinfocus.com/",
        "nycif_url": "https://nycinfocus.com/",
        "status": "unverified",
        "freshness_label": "this_weekend",
        "public_display_eligible": true,
        "review_status": "needs_review",
        "cost": "unknown",
        "accessibility": "UNSPECIFIED",
        "street_closure": false,
        "permit_number": "SAMPLE-001",
        "last_checked": "2026-06-17T18:00:00+00:00",
        "curated_by_nycif": false,
        "editorial_pick": false,
        "photo_opportunity": true,
        "reminder_available": true,
        "calendar_uid": "sample-film-permit-001",
        "reminder_description": "Sample public filming activity for prototype testing."
      }
    },
    {
      "type": "Feature",
      "geometry": {
        "type": "Point",
        "coordinates": [-73.9866, 40.6912]
      },
      "properties": {
        "event_id": "sample-street-construction-002",
        "title": "Sample Street Construction Permit",
        "description": "Sample public street construction activity for radar testing.",
        "category": "Transit / Street Closure",
        "source_layer": "street_construction",
        "start_date": "2026-06-21",
        "start_time": "07:00",
        "end_date": "2026-06-21",
        "end_time": "17:00",
        "borough": "Brooklyn",
        "neighborhood": "Downtown Brooklyn",
        "address": "Sample Brooklyn street segment",
        "latitude": 40.6912,
        "longitude": -73.9866,
        "source_name": "NYCIF Sample Data",
        "source_url": "https://nycinfocus.com/",
        "official_source_url": "https://nycinfocus.com/",
        "nycif_url": "https://nycinfocus.com/",
        "status": "unverified",
        "freshness_label": "this_weekend",
        "public_display_eligible": true,
        "review_status": "needs_review",
        "cost": "unknown",
        "accessibility": "UNSPECIFIED",
        "street_closure": true,
        "permit_number": "SAMPLE-002",
        "last_checked": "2026-06-17T18:00:00+00:00",
        "curated_by_nycif": false,
        "editorial_pick": false,
        "photo_opportunity": false,
        "reminder_available": true,
        "calendar_uid": "sample-street-construction-002",
        "reminder_description": "Sample public street construction activity for radar testing."
      }
    }
  ]
}
